CCSDS_OMM_VERS = 2.0
CREATION_DATE  = 
ORIGINATOR     = 

OBJECT_NAME    = STARLINK-36419
OBJECT_ID      = 2026-016Z
CENTER_NAME    = EARTH
REF_FRAME      = TEME
TIME_SYSTEM    = UTC
MEAN_ELEMENT_THEORY = SGP/SGP4

EPOCH          = 2026-02-06T14:00:01.999872
MEAN_MOTION    = 15.83914949
ECCENTRICITY   = .00013969
INCLINATION    = 97.2766
RA_OF_ASC_NODE = 96.4832
ARG_OF_PERICENTER = 85.1498
MEAN_ANOMALY   = 267.7731

EPHEMERIS_TYPE = 0
CLASSIFICATION_TYPE = U
NORAD_CAT_ID   = 67584
ELEMENT_SET_NO = 999
REV_AT_EPOCH   = 304
BSTAR          = -.86928331E-2
MEAN_MOTION_DOT = -.1674579E-1
MEAN_MOTION_DDOT = 0

CCSDS_OMM_VERS = 2.0
CREATION_DATE  = 
ORIGINATOR     = 

OBJECT_NAME    = STARLINK-36560
OBJECT_ID      = 2026-016AA
CENTER_NAME    = EARTH
REF_FRAME      = TEME
TIME_SYSTEM    = UTC
MEAN_ELEMENT_THEORY = SGP/SGP4

EPOCH          = 2026-02-06T14:00:01.999872
MEAN_MOTION    = 15.84244537
ECCENTRICITY   = .0001303
INCLINATION    = 97.2761
RA_OF_ASC_NODE = 96.4867
ARG_OF_PERICENTER = 82.7160
MEAN_ANOMALY   = 278.9312

EPHEMERIS_TYPE = 0
CLASSIFICATION_TYPE = U
NORAD_CAT_ID   = 67585
ELEMENT_SET_NO = 999
REV_AT_EPOCH   = 298
BSTAR          = -.84680939E-2
MEAN_MOTION_DOT = -.1659419E-1
MEAN_MOTION_DDOT = 0

CCSDS_OMM_VERS = 2.0
CREATION_DATE  = 
ORIGINATOR     = 

OBJECT_NAME    = CZ-2C DEB
OBJECT_ID      = 2026-009C
CENTER_NAME    = EARTH
REF_FRAME      = TEME
TIME_SYSTEM    = UTC
MEAN_ELEMENT_THEORY = SGP/SGP4

EPOCH          = 2026-02-06T16:09:32.628384
MEAN_MOTION    = 15.11916100
ECCENTRICITY   = .0111292
INCLINATION    = 97.2265
RA_OF_ASC_NODE = 111.2616
ARG_OF_PERICENTER = 144.2965
MEAN_ANOMALY   = 216.5776

EPHEMERIS_TYPE = 0
CLASSIFICATION_TYPE = U
NORAD_CAT_ID   = 67586
ELEMENT_SET_NO = 999
REV_AT_EPOCH   = 339
BSTAR          = .46359E-2
MEAN_MOTION_DOT = .93221E-3
MEAN_MOTION_DDOT = 0

CCSDS_OMM_VERS = 2.0
CREATION_DATE  = 
ORIGINATOR     = 

OBJECT_NAME    = CZ-2C DEB
OBJECT_ID      = 2026-009D
CENTER_NAME    = EARTH
REF_FRAME      = TEME
TIME_SYSTEM    = UTC
MEAN_ELEMENT_THEORY = SGP/SGP4

EPOCH          = 2026-02-06T18:41:31.314624
MEAN_MOTION    = 15.13438160
ECCENTRICITY   = .0107893
INCLINATION    = 97.6722
RA_OF_ASC_NODE = 112.6114
ARG_OF_PERICENTER = 149.3385
MEAN_ANOMALY   = 211.4211

EPHEMERIS_TYPE = 0
CLASSIFICATION_TYPE = U
NORAD_CAT_ID   = 67587
ELEMENT_SET_NO = 999
REV_AT_EPOCH   = 341
BSTAR          = .33403E-2
MEAN_MOTION_DOT = .69419E-3
MEAN_MOTION_DDOT = 0

CCSDS_OMM_VERS = 2.0
CREATION_DATE  = 
ORIGINATOR     = 

OBJECT_NAME    = NAVSTAR 85 (USA 581)
OBJECT_ID      = 2026-017A
CENTER_NAME    = EARTH
REF_FRAME      = TEME
TIME_SYSTEM    = UTC
MEAN_ELEMENT_THEORY = SGP/SGP4

EPOCH          = 2026-02-06T13:41:30.040512
MEAN_MOTION    = 2.00561517
ECCENTRICITY   = .00008655
INCLINATION    = 55.0007
RA_OF_ASC_NODE = 93.9975
ARG_OF_PERICENTER = 80.8749
MEAN_ANOMALY   = 279.2003

EPHEMERIS_TYPE = 0
CLASSIFICATION_TYPE = U
NORAD_CAT_ID   = 67588
ELEMENT_SET_NO = 999
REV_AT_EPOCH   = 42899
BSTAR          = 0
MEAN_MOTION_DOT = -.33E-6
MEAN_MOTION_DDOT = 0

CCSDS_OMM_VERS = 2.0
CREATION_DATE  = 
ORIGINATOR     = 

OBJECT_NAME    = STARLINK-36641
OBJECT_ID      = 2026-018A
CENTER_NAME    = EARTH
REF_FRAME      = TEME
TIME_SYSTEM    = UTC
MEAN_ELEMENT_THEORY = SGP/SGP4

EPOCH          = 2026-02-06T20:00:01.999008
MEAN_MOTION    = 15.91366637
ECCENTRICITY   = .0001464
INCLINATION    = 97.2802
RA_OF_ASC_NODE = 101.9959
ARG_OF_PERICENTER = 81.8583
MEAN_ANOMALY   = 231.2196

EPHEMERIS_TYPE = 0
CLASSIFICATION_TYPE = U
NORAD_CAT_ID   = 67589
ELEMENT_SET_NO = 999
REV_AT_EPOCH   = 238
BSTAR          = -.59066E-2
MEAN_MOTION_DOT = -.1865722E-1
MEAN_MOTION_DDOT = .9508E-3

CCSDS_OMM_VERS = 2.0
CREATION_DATE  = 
ORIGINATOR     = 

OBJECT_NAME    = STARLINK-36376
OBJECT_ID      = 2026-018B
CENTER_NAME    = EARTH
REF_FRAME      = TEME
TIME_SYSTEM    = UTC
MEAN_ELEMENT_THEORY = SGP/SGP4

EPOCH          = 2026-02-06T20:00:01.999008
MEAN_MOTION    = 15.91538838
ECCENTRICITY   = .0001478
INCLINATION    = 97.2799
RA_OF_ASC_NODE = 101.9972
ARG_OF_PERICENTER = 79.6559
MEAN_ANOMALY   = 236.6597

EPHEMERIS_TYPE = 0
CLASSIFICATION_TYPE = U
NORAD_CAT_ID   = 67590
ELEMENT_SET_NO = 999
REV_AT_EPOCH   = 243
BSTAR          = -.58086E-2
MEAN_MOTION_DOT = -.1851132E-1
MEAN_MOTION_DDOT = .93859E-3

CCSDS_OMM_VERS = 2.0
CREATION_DATE  = 
ORIGINATOR     = 

OBJECT_NAME    = STARLINK-36391
OBJECT_ID      = 2026-018C
CENTER_NAME    = EARTH
REF_FRAME      = TEME
TIME_SYSTEM    = UTC
MEAN_ELEMENT_THEORY = SGP/SGP4

EPOCH          = 2026-02-06T20:00:01.999008
MEAN_MOTION    = 15.91753871
ECCENTRICITY   = .0001379
INCLINATION    = 97.2799
RA_OF_ASC_NODE = 101.9989
ARG_OF_PERICENTER = 86.9046
MEAN_ANOMALY   = 233.2159

EPHEMERIS_TYPE = 0
CLASSIFICATION_TYPE = U
NORAD_CAT_ID   = 67591
ELEMENT_SET_NO = 999
REV_AT_EPOCH   = 243
BSTAR          = -.57417E-2
MEAN_MOTION_DOT = -.1850028E-1
MEAN_MOTION_DDOT = .93959E-3

CCSDS_OMM_VERS = 2.0
CREATION_DATE  = 
ORIGINATOR     = 

OBJECT_NAME    = STARLINK-36603
OBJECT_ID      = 2026-018D
CENTER_NAME    = EARTH
REF_FRAME      = TEME
TIME_SYSTEM    = UTC
MEAN_ELEMENT_THEORY = SGP/SGP4

EPOCH          = 2026-02-06T20:00:01.999008
MEAN_MOTION    = 15.91892181
ECCENTRICITY   = .0001341
INCLINATION    = 97.2796
RA_OF_ASC_NODE = 101.9998
ARG_OF_PERICENTER = 92.4817
MEAN_ANOMALY   = 230.2708

EPHEMERIS_TYPE = 0
CLASSIFICATION_TYPE = U
NORAD_CAT_ID   = 67592
ELEMENT_SET_NO = 999
REV_AT_EPOCH   = 239
BSTAR          = -.56792E-2
MEAN_MOTION_DOT = -.1842971E-1
MEAN_MOTION_DDOT = .93422E-3

CCSDS_OMM_VERS = 2.0
CREATION_DATE  = 
ORIGINATOR     = 

OBJECT_NAME    = STARLINK-36634
OBJECT_ID      = 2026-018E
CENTER_NAME    = EARTH
REF_FRAME      = TEME
TIME_SYSTEM    = UTC
MEAN_ELEMENT_THEORY = SGP/SGP4

EPOCH          = 2026-02-06T20:00:01.999008
MEAN_MOTION    = 15.92113525
ECCENTRICITY   = .0001402
INCLINATION    = 97.2794
RA_OF_ASC_NODE = 102.0016
ARG_OF_PERICENTER = 82.8893
MEAN_ANOMALY   = 243.8019

EPHEMERIS_TYPE = 0
CLASSIFICATION_TYPE = U
NORAD_CAT_ID   = 67593
ELEMENT_SET_NO = 999
REV_AT_EPOCH   = 238
BSTAR          = -.55969E-2
MEAN_MOTION_DOT = -.1837087E-1
MEAN_MOTION_DDOT = .93075E-3

CCSDS_OMM_VERS = 2.0
CREATION_DATE  = 
ORIGINATOR     = 

OBJECT_NAME    = STARLINK-36638
OBJECT_ID      = 2026-018F
CENTER_NAME    = EARTH
REF_FRAME      = TEME
TIME_SYSTEM    = UTC
MEAN_ELEMENT_THEORY = SGP/SGP4

EPOCH          = 2026-02-06T20:00:01.999008
MEAN_MOTION    = 15.92320302
ECCENTRICITY   = .000142
INCLINATION    = 97.2792
RA_OF_ASC_NODE = 102.0032
ARG_OF_PERICENTER = 83.1789
MEAN_ANOMALY   = 247.2837

EPHEMERIS_TYPE = 0
CLASSIFICATION_TYPE = U
NORAD_CAT_ID   = 67594
ELEMENT_SET_NO = 999
REV_AT_EPOCH   = 238
BSTAR          = -.54983E-2
MEAN_MOTION_DOT = -.1824173E-1
MEAN_MOTION_DDOT = .92051E-3

CCSDS_OMM_VERS = 2.0
CREATION_DATE  = 
ORIGINATOR     = 

OBJECT_NAME    = STARLINK-36628
OBJECT_ID      = 2026-018G
CENTER_NAME    = EARTH
REF_FRAME      = TEME
TIME_SYSTEM    = UTC
MEAN_ELEMENT_THEORY = SGP/SGP4

EPOCH          = 2026-02-06T20:00:01.999008
MEAN_MOTION    = 15.92479475
ECCENTRICITY   = .0001388
INCLINATION    = 97.2788
RA_OF_ASC_NODE = 102.0042
ARG_OF_PERICENTER = 85.6306
MEAN_ANOMALY   = 247.6615

EPHEMERIS_TYPE = 0
CLASSIFICATION_TYPE = U
NORAD_CAT_ID   = 67595
ELEMENT_SET_NO = 999
REV_AT_EPOCH   = 238
BSTAR          = -.5482E-2
MEAN_MOTION_DOT = -.1833652E-1
MEAN_MOTION_DDOT = .93098E-3

