STARLINK-36419          
1 67584U 26016Z   26037.58335648 -.01674579  00000+0 -86928-2 0  9990
2 67584  97.2766  96.4832 0001396  85.1498 267.7731 15.83914949  3048
STARLINK-36560          
1 67585U 26016AA  26037.58335648 -.01659419  00000+0 -84681-2 0  9991
2 67585  97.2761  96.4867 0001303  82.7160 278.9312 15.84244537  2980
CZ-2C DEB               
1 67586U 26009C   26037.67329431  .00093221  00000+0  46359-2 0  9997
2 67586  97.2265 111.2616 0111292 144.2965 216.5776 15.11916100  3394
CZ-2C DEB               
1 67587U 26009D   26037.77883466  .00069419  00000+0  33403-2 0  9990
2 67587  97.6722 112.6114 0107893 149.3385 211.4211 15.13438160  3417
NAVSTAR 85 (USA 581)    
1 67588U 26017A   26037.57048658 -.00000033  00000+0  00000+0 0  9996
2 67588  55.0007  93.9975 0000865  80.8749 279.2003  2.00561517428992
STARLINK-36641          
1 67589U 26018A   26037.83335647 -.01865722  95080-3 -59066-2 0  9995
2 67589  97.2802 101.9959 0001464  81.8583 231.2196 15.91366637  2381
STARLINK-36376          
1 67590U 26018B   26037.83335647 -.01851132  93859-3 -58086-2 0  9990
2 67590  97.2799 101.9972 0001478  79.6559 236.6597 15.91538838  2430
STARLINK-36391          
1 67591U 26018C   26037.83335647 -.01850028  93959-3 -57417-2 0  9992
2 67591  97.2799 101.9989 0001379  86.9046 233.2159 15.91753871  2434
STARLINK-36603          
1 67592U 26018D   26037.83335647 -.01842971  93422-3 -56792-2 0  9991
2 67592  97.2796 101.9998 0001341  92.4817 230.2708 15.91892181  2399
STARLINK-36634          
1 67593U 26018E   26037.83335647 -.01837087  93075-3 -55969-2 0  9993
2 67593  97.2794 102.0016 0001402  82.8893 243.8019 15.92113525  2389
STARLINK-36638          
1 67594U 26018F   26037.83335647 -.01824173  92051-3 -54983-2 0  9994
2 67594  97.2792 102.0032 0001420  83.1789 247.2837 15.92320302  2383
STARLINK-36628          
1 67595U 26018G   26037.83335647 -.01833652  93098-3 -54820-2 0  9999
2 67595  97.2788 102.0042 0001388  85.6306 247.6615 15.92479475  2389
